OBJECT_NAME,OBJECT_ID,EPOCH,MEAN_MOTION,ECCENTRICITY,INCLINATION,RA_OF_ASC_NODE,ARG_OF_PERICENTER,MEAN_ANOMALY,EPHEMERIS_TYPE,CLASSIFICATION_TYPE,NORAD_CAT_ID,ELEMENT_SET_NO,REV_AT_EPOCH,BSTAR,MEAN_MOTION_DOT,MEAN_MOTION_DDOT
STARLINK-5067,2023-021AB,2026-07-16T10:58:21.023328,14.98342224,.0003671,69.9984,219.6174,268.0854,91.9885,0,U,55653,999,18808,-.23374E-3,-.2882E-4,0
STARLINK-5070,2023-021AC,2026-07-16T10:40:21.491616,14.98329957,.0003162,69.9985,219.9780,271.1111,88.9685,0,U,55654,999,18807,.67532E-5,-.12E-6,0
STARLINK-5267,2023-021AD,2026-07-17T00:23:10.911264,14.98320498,.0003298,69.9990,198.4855,264.9047,95.1736,0,U,55655,999,18864,.27993E-4,.241E-5,0
STARLINK-5328,2023-021AF,2026-07-16T10:09:59.053824,14.98328738,.000337,69.9987,200.0278,271.5249,88.5524,0,U,55657,999,18856,-.15521E-3,-.1944E-4,0
STARLINK-5307,2023-021AG,2026-07-16T11:10:23.261664,14.98332714,.0003928,69.9984,219.6464,267.8505,92.2204,0,U,55658,999,18808,.30782E-4,.274E-5,0
STARLINK-5477,2023-021AH,2026-07-16T10:03:58.779648,14.98325488,.0003426,69.9997,200.0155,261.4100,98.6671,0,U,55659,999,18855,-.20538E-4,-.338E-5,0
STARLINK-5467,2023-021AJ,2026-07-16T23:17:03.024096,14.98333288,.0003461,69.9996,198.3314,267.9032,92.1730,0,U,55660,999,18865,-.36033E-4,-.523E-5,0
STARLINK-5475,2023-021AK,2026-07-17T00:05:09.077856,14.98316474,.0003831,69.9991,198.4418,268.2624,91.8097,0,U,55661,999,18865,.45577E-4,.451E-5,0
STARLINK-5479,2023-021AL,2026-07-16T23:17:04.238016,14.97529349,.0003492,69.9996,198.7343,268.3883,91.6876,0,U,55662,999,18864,-.50468E-7,-.93E-6,0
STARLINK-5473,2023-021AM,2026-07-16T11:04:03.760032,14.98333605,.0003915,69.9992,199.7578,271.9045,88.1665,0,U,55663,999,18856,.30849E-4,.275E-5,0
STARLINK-5480,2023-021AN,2026-07-17T00:17:09.557088,14.98329320,.0003451,69.9987,198.4702,267.2424,92.8340,0,U,55664,999,18865,.74246E-5,-.4E-7,0
STARLINK-5474,2023-021AP,2026-07-16T10:58:01.856352,14.98322523,.0003373,69.9996,199.7443,269.6818,90.3954,0,U,55665,999,18856,-.14714E-3,-.1848E-4,0
STARLINK-5456,2023-021AR,2026-07-16T10:39:59.938272,14.98334879,.0003123,70.0004,199.7007,267.1542,92.9259,0,U,55667,999,18856,.15898E-4,.97E-6,0
STARLINK-5455,2023-021AS,2026-07-17T00:11:09.765024,14.98321636,.0003931,69.9989,198.4559,266.7256,93.3454,0,U,55668,999,18864,.13864E-4,.72E-6,0
STARLINK-5459,2023-021AT,2026-07-16T23:59:06.462240,14.98351134,.0004101,69.9991,198.4265,272.6645,87.4044,0,U,55669,999,18864,.24063E-3,.2781E-4,0
STARLINK-5423,2023-021AU,2026-07-16T23:41:05.471232,14.98324326,.0003485,69.9994,198.3809,264.7390,95.3372,0,U,55670,999,18865,.15511E-5,-.75E-6,0
STARLINK-5460,2023-021AV,2026-07-16T10:22:14.469024,14.98334898,.0003711,69.9993,200.0465,267.0314,93.0420,0,U,55671,999,18856,-.85314E-5,-.195E-5,0
STARLINK-5463,2023-021AX,2026-07-16T10:46:00.437088,14.98336687,.000366,69.9995,199.7122,266.8818,93.1923,0,U,55673,999,18857,-.35775E-5,-.136E-5,0
STARLINK-5462,2023-021AY,2026-07-16T10:33:58.991040,14.98332041,.0004173,70.0002,199.6832,263.7524,96.3159,0,U,55674,999,18857,.35213E-4,.327E-5,0
STARLINK-5232,2023-021AZ,2026-07-16T10:21:57.780000,14.98330554,.0003869,69.9993,199.6560,262.7947,97.2773,0,U,55675,999,18857,.3482E-4,.322E-5,0
STARLINK-5300,2023-021BA,2026-07-16T09:09:47.365344,14.98336348,.0003543,70.0007,180.0104,263.4808,96.5948,0,U,55676,999,18905,.41588E-4,.403E-5,0
STARLINK-5324,2023-021BB,2026-07-16T08:51:32.719680,14.98327956,.0003849,69.9991,179.9640,271.2211,88.8507,0,U,55677,999,18905,.26162E-4,.219E-5,0
STARLINK-5592,2023-028A,2026-07-16T15:29:45.384288,14.98331285,.0003394,69.9996,279.4295,270.7772,89.2998,0,U,55741,999,18554,.56362E-4,.58E-5,0
STARLINK-5594,2023-028B,2026-07-17T04:24:50.522112,14.98332159,.0003194,69.9999,278.0985,268.1806,91.8987,0,U,55742,999,18543,.1873E-4,.13E-5,0
STARLINK-5602,2023-028C,2026-07-17T04:30:50.990688,14.98332086,.000421,69.9994,278.1130,267.8607,92.2070,0,U,55743,999,18543,.18456E-4,.127E-5,0
STARLINK-5601,2023-028D,2026-07-16T15:36:00.360288,14.98330836,.0003368,69.9997,279.4449,269.9936,90.0837,0,U,55744,999,18535,.45914E-4,.455E-5,0
STARLINK-5579,2023-028F,2026-07-16T13:17:35.193120,14.98330557,.0003286,69.9991,279.5083,260.7886,99.2902,0,U,55746,999,18534,.57569E-4,.594E-5,0
STARLINK-5539,2023-028G,2026-07-16T15:17:44.079936,14.98330139,.000354,69.9995,279.3995,267.8041,92.2713,0,U,55747,999,18535,.27625E-4,.237E-5,0
STARLINK-5580,2023-028H,2026-07-16T15:11:43.379808,14.98329649,.0003989,69.9994,279.3842,267.1020,92.9683,0,U,55748,999,18535,.40327E-4,.388E-5,0
STARLINK-5573,2023-028K,2026-07-16T15:05:42.220896,14.98344444,.0003832,70.0005,279.3698,274.3909,85.6812,0,U,55750,999,18535,.19411E-3,.2225E-4,0
