[ {"name": "STARLINK-5067", "line1": "1 55653U 23021AB  26197.45718777 -.00002882  00000+0 -23374-3 0  9996", "line2": "2 55653  69.9984 219.6174 0003671 268.0854  91.9885 14.98342224188085"}, {"name": "STARLINK-5070", "line1": "1 55654U 23021AC  26197.44469319 -.00000012  00000+0  67532-5 0  9999", "line2": "2 55654  69.9985 219.9780 0003162 271.1111  88.9685 14.98329957188070"}, {"name": "STARLINK-5267", "line1": "1 55655U 23021AD  26198.01609851  .00000241  00000+0  27993-4 0  9990", "line2": "2 55655  69.9990 198.4855 0003298 264.9047  95.1736 14.98320498188640"}, {"name": "STARLINK-5328", "line1": "1 55657U 23021AF  26197.42360016 -.00001944  00000+0 -15521-3 0  9999", "line2": "2 55657  69.9987 200.0278 0003370 271.5249  88.5524 14.98328738188563"}, {"name": "STARLINK-5307", "line1": "1 55658U 23021AG  26197.46554701  .00000274  00000+0  30782-4 0  9990", "line2": "2 55658  69.9984 219.6464 0003928 267.8505  92.2204 14.98332714188089"}, {"name": "STARLINK-5477", "line1": "1 55659U 23021AH  26197.41943032 -.00000338  00000+0 -20538-4 0  9996", "line2": "2 55659  69.9997 200.0155 0003426 261.4100  98.6671 14.98325488188559"}, {"name": "STARLINK-5467", "line1": "1 55660U 23021AJ  26197.97017389 -.00000523  00000+0 -36033-4 0  9999", "line2": "2 55660  69.9996 198.3314 0003461 267.9032  92.1730 14.98333288188653"}, {"name": "STARLINK-5475", "line1": "1 55661U 23021AK  26198.00357729  .00000451  00000+0  45577-4 0  9991", "line2": "2 55661  69.9991 198.4418 0003831 268.2624  91.8097 14.98316474188657"}, {"name": "STARLINK-5479", "line1": "1 55662U 23021AL  26197.97018794 -.00000093  00000+0 -50468-7 0  9995", "line2": "2 55662  69.9996 198.7343 0003492 268.3883  91.6876 14.97529349188642"}, {"name": "STARLINK-5473", "line1": "1 55663U 23021AM  26197.46115463  .00000275  00000+0  30849-4 0  9999", "line2": "2 55663  69.9992 199.7578 0003915 271.9045  88.1665 14.98333605188567"}, {"name": "STARLINK-5480", "line1": "1 55664U 23021AN  26198.01191617 -.00000004  00000+0  74246-5 0  9998", "line2": "2 55664  69.9987 198.4702 0003451 267.2424  92.8340 14.98329320188652"}, {"name": "STARLINK-5474", "line1": "1 55665U 23021AP  26197.45696593 -.00001848  00000+0 -14714-3 0  9999", "line2": "2 55665  69.9996 199.7443 0003373 269.6818  90.3954 14.98322523188567"}, {"name": "STARLINK-5456", "line1": "1 55667U 23021AR  26197.44444373  .00000097  00000+0  15898-4 0  9995", "line2": "2 55667  70.0004 199.7007 0003123 267.1542  92.9259 14.98334879188561"}, {"name": "STARLINK-5455", "line1": "1 55668U 23021AS  26198.00775191  .00000072  00000+0  13864-4 0  9998", "line2": "2 55668  69.9989 198.4559 0003931 266.7256  93.3454 14.98321636188641"}, {"name": "STARLINK-5459", "line1": "1 55669U 23021AT  26197.99938035  .00002781  00000+0  24063-3 0  9995", "line2": "2 55669  69.9991 198.4265 0004101 272.6645  87.4044 14.98351134188642"}, {"name": "STARLINK-5423", "line1": "1 55670U 23021AU  26197.98686888 -.00000075  00000+0  15511-5 0  9997", "line2": "2 55670  69.9994 198.3809 0003485 264.7390  95.3372 14.98324326188659"}, {"name": "STARLINK-5460", "line1": "1 55671U 23021AV  26197.43211191 -.00000195  00000+0 -85314-5 0  9991", "line2": "2 55671  69.9993 200.0465 0003711 267.0314  93.0420 14.98334898188566"}, {"name": "STARLINK-5463", "line1": "1 55673U 23021AX  26197.44861617 -.00000136  00000+0 -35775-5 0  9999", "line2": "2 55673  69.9995 199.7122 0003660 266.8818  93.1923 14.98336687188571"}, {"name": "STARLINK-5462", "line1": "1 55674U 23021AY  26197.44026610  .00000327  00000+0  35213-4 0  9992", "line2": "2 55674  70.0002 199.6832 0004173 263.7524  96.3159 14.98332041188577"}, {"name": "STARLINK-5232", "line1": "1 55675U 23021AZ  26197.43191875  .00000322  00000+0  34820-4 0  9996", "line2": "2 55675  69.9993 199.6560 0003869 262.7947  97.2773 14.98330554188570"}, {"name": "STARLINK-5300", "line1": "1 55676U 23021BA  26197.38179821  .00000403  00000+0  41588-4 0  9997", "line2": "2 55676  70.0007 180.0104 0003543 263.4808  96.5948 14.98336348189058"}, {"name": "STARLINK-5324", "line1": "1 55677U 23021BB  26197.36912870  .00000219  00000+0  26162-4 0  9991", "line2": "2 55677  69.9991 179.9640 0003849 271.2211  88.8507 14.98327956189054"}, {"name": "STARLINK-5592", "line1": "1 55741U 23028A   26197.64566417  .00000580  00000+0  56362-4 0  9999", "line2": "2 55741  69.9996 279.4295 0003394 270.7772  89.2998 14.98331285185543"}, {"name": "STARLINK-5594", "line1": "1 55742U 23028B   26198.18391808  .00000130  00000+0  18730-4 0  9998", "line2": "2 55742  69.9999 278.0985 0003194 268.1806  91.8987 14.98332159185431"}, {"name": "STARLINK-5602", "line1": "1 55743U 23028C   26198.18809017  .00000127  00000+0  18456-4 0  9996", "line2": "2 55743  69.9994 278.1130 0004210 267.8607  92.2070 14.98332086185432"}, {"name": "STARLINK-5601", "line1": "1 55744U 23028D   26197.65000417  .00000455  00000+0  45914-4 0  9998", "line2": "2 55744  69.9997 279.4449 0003368 269.9936  90.0837 14.98330836185353"}, {"name": "STARLINK-5579", "line1": "1 55746U 23028F   26197.55387955  .00000594  00000+0  57569-4 0  9997", "line2": "2 55746  69.9991 279.5083 0003286 260.7886  99.2902 14.98330557185349"}, {"name": "STARLINK-5539", "line1": "1 55747U 23028G   26197.63731574  .00000237  00000+0  27625-4 0  9991", "line2": "2 55747  69.9995 279.3995 0003540 267.8041  92.2713 14.98330139185358"}, {"name": "STARLINK-5580", "line1": "1 55748U 23028H   26197.63314097  .00000388  00000+0  40327-4 0  9990", "line2": "2 55748  69.9994 279.3842 0003989 267.1020  92.9683 14.98329649185353"}, {"name": "STARLINK-5573", "line1": "1 55750U 23028K   26197.62896089  .00002225  00000+0  19411-3 0  9999", "line2": "2 55750  70.0005 279.3698 0003832 274.3909  85.6812 14.98344444185357"}]